{"fetched_at":"2026-03-29T16:36:15Z","count":15609,"tles":[{"name":"STARLINK-33550","line1":"1 62285U 24237U   26087.52806918  .00024639  00000+0  90046-3 0  9998","line2":"2 62285  43.0023 109.9146 0001934 267.0980  92.9650 15.27632074 74072","category":"Starlink"}]}