{
  "norad_id": 62285,
  "name": "STARLINK-33550",
  "history": [
    {
      "epoch": "2026-03-28T12:40:25.177152Z",
      "apogee_km": 484.2200954148557,
      "perigee_km": 481.5662489442575,
      "latitude_deg": -2.2526616495993335e-05,
      "longitude_deg": 93.86244666277051,
      "height_km": 482.7377178940723,
      "semi_major_axis_km": 6861.030172179557,
      "eccentricity": 0.0001934,
      "inclination_deg": 43.0023,
      "raan_deg": 109.9146,
      "arg_perigee_deg": 267.098,
      "mean_anomaly_deg": 92.965,
      "mean_motion_rev_day": 15.27632074
    }
  ]
}